SZ-21 MODULE            
1 66515U 25246C   25332.79257301  .00027933  00000+0  31952-3 0  9997
2 66515  41.4759 101.0637 0005247 174.1770 185.9131 15.61505105  2265
SHENZHOU-22             
1 66645U 25272A   25332.61902897  .00013824  00000+0  18037-3 0  9991
2 66645  41.4665 102.3779 0010740 288.2195  71.7474 15.58366267261683
CZ-2F R/B               
1 66646U 25272B   25330.47076975  .00449059  75676-5  29319-3 0  9998
2 66646  41.4431 114.9009 0121079 133.7676 227.3272 16.01945612   217
SOYUZ-MS 28             
1 66664U 25275A   25332.54438814  .00008991  00000+0  17015-3 0  9994
2 66664  51.6312 212.7497 0003745 179.2752 180.8242 15.49168962   244
